{
 "generated_at": "2026-06-26T08:30:21Z",
 "sources": [
  {
   "name": "CelesTrak",
   "url": "https://celestrak.org/NORAD/elements/",
   "license": "frei verfügbar; Attribution. Ursprünglich USSPACECOM/Space-Track."
  },
  {
   "name": "GCAT (J. McDowell, planet4589.org)",
   "url": "https://planet4589.org/space/gcat/",
   "license": "CC-BY 4.0"
  }
 ],
 "satellites": [
  {
   "norad": 42988,
   "name": "SKYSAT-C10",
   "intl": "2017-068B",
   "group": "resource",
   "gcat": {
    "class": "B",
    "category": "IMG",
    "owner": "PLABST",
    "state": "US"
   },
   "omm": {
    "OBJECT_NAME": "SKYSAT-C10",
    "OBJECT_ID": "2017-068B",
    "EPOCH": "2026-06-25T21:34:28.156800",
    "MEAN_MOTION": 15.34774915,
    "ECCENTRICITY": 0.0001136,
    "INCLINATION": 97.4509,
    "RA_OF_ASC_NODE": 313.8319,
    "ARG_OF_PERICENTER": 104.8493,
    "MEAN_ANOMALY": 255.2876,
    "EPHEMERIS_TYPE": 0,
    "CLASSIFICATION_TYPE": "U",
    "NORAD_CAT_ID": 42988,
    "ELEMENT_SET_NO": 999,
    "REV_AT_EPOCH": 48369,
    "BSTAR": 0.00030207,
    "MEAN_MOTION_DOT": 0.00010105,
    "MEAN_MOTION_DDOT": 0
   }
  },
  {
   "norad": 42987,
   "name": "SKYSAT-C11",
   "intl": "2017-068A",
   "group": "resource",
   "gcat": {
    "class": "B",
    "category": "IMG",
    "owner": "PLABST",
    "state": "US"
   },
   "omm": {
    "OBJECT_NAME": "SKYSAT-C11",
    "OBJECT_ID": "2017-068A",
    "EPOCH": "2026-06-25T22:04:58.607328",
    "MEAN_MOTION": 15.58327902,
    "ECCENTRICITY": 0.0000485,
    "INCLINATION": 97.4352,
    "RA_OF_ASC_NODE": 326.1337,
    "ARG_OF_PERICENTER": 126.6311,
    "MEAN_ANOMALY": 233.4989,
    "EPHEMERIS_TYPE": 0,
    "CLASSIFICATION_TYPE": "U",
    "NORAD_CAT_ID": 42987,
    "ELEMENT_SET_NO": 999,
    "REV_AT_EPOCH": 48460,
    "BSTAR": 0.00039214,
    "MEAN_MOTION_DOT": 0.0002969,
    "MEAN_MOTION_DDOT": 0
   }
  },
  {
   "norad": 41773,
   "name": "SKYSAT-C2",
   "intl": "2016-058D",
   "group": "resource",
   "gcat": {
    "class": "B",
    "category": "IMG",
    "owner": "TBELLA",
    "state": "US"
   },
   "omm": {
    "OBJECT_NAME": "SKYSAT-C2",
    "OBJECT_ID": "2016-058D",
    "EPOCH": "2026-06-26T00:27:29.192832",
    "MEAN_MOTION": 15.42261578,
    "ECCENTRICITY": 0.0003924,
    "INCLINATION": 97.0169,
    "RA_OF_ASC_NODE": 198.782,
    "ARG_OF_PERICENTER": 51.2857,
    "MEAN_ANOMALY": 308.8741,
    "EPHEMERIS_TYPE": 0,
    "CLASSIFICATION_TYPE": "U",
    "NORAD_CAT_ID": 41773,
    "ELEMENT_SET_NO": 999,
    "REV_AT_EPOCH": 54641,
    "BSTAR": 0.00032596,
    "MEAN_MOTION_DOT": 0.00013945,
    "MEAN_MOTION_DDOT": 0
   }
  },
  {
   "norad": 41774,
   "name": "SKYSAT-C3",
   "intl": "2016-058E",
   "group": "resource",
   "gcat": {
    "class": "B",
    "category": "IMG",
    "owner": "TBELLA",
    "state": "US"
   },
   "omm": {
    "OBJECT_NAME": "SKYSAT-C3",
    "OBJECT_ID": "2016-058E",
    "EPOCH": "2026-06-25T14:03:43.049952",
    "MEAN_MOTION": 15.52881901,
    "ECCENTRICITY": 0.0001259,
    "INCLINATION": 96.9009,
    "RA_OF_ASC_NODE": 207.1097,
    "ARG_OF_PERICENTER": 117.9292,
    "MEAN_ANOMALY": 242.209,
    "EPHEMERIS_TYPE": 0,
    "CLASSIFICATION_TYPE": "U",
    "NORAD_CAT_ID": 41774,
    "ELEMENT_SET_NO": 999,
    "REV_AT_EPOCH": 54741,
    "BSTAR": 0.00043484,
    "MEAN_MOTION_DOT": 0.00026959,
    "MEAN_MOTION_DDOT": 0
   }
  },
  {
   "norad": 41771,
   "name": "SKYSAT-C4",
   "intl": "2016-058B",
   "group": "resource",
   "gcat": {
    "class": "B",
    "category": "IMG",
    "owner": "TBELLA",
    "state": "US"
   },
   "omm": {
    "OBJECT_NAME": "SKYSAT-C4",
    "OBJECT_ID": "2016-058B",
    "EPOCH": "2026-06-25T23:45:56.398176",
    "MEAN_MOTION": 15.48851382,
    "ECCENTRICITY": 0.0002026,
    "INCLINATION": 96.9173,
    "RA_OF_ASC_NODE": 198.394,
    "ARG_OF_PERICENTER": 140.4009,
    "MEAN_ANOMALY": 219.7391,
    "EPHEMERIS_TYPE": 0,
    "CLASSIFICATION_TYPE": "U",
    "NORAD_CAT_ID": 41771,
    "ELEMENT_SET_NO": 999,
    "REV_AT_EPOCH": 54683,
    "BSTAR": 0.00036233,
    "MEAN_MOTION_DOT": 0.0001944,
    "MEAN_MOTION_DDOT": 0
   }
  },
  {
   "norad": 41772,
   "name": "SKYSAT-C5",
   "intl": "2016-058C",
   "group": "resource",
   "gcat": {
    "class": "B",
    "category": "IMG",
    "owner": "TBELLA",
    "state": "US"
   },
   "omm": {
    "OBJECT_NAME": "SKYSAT-C5",
    "OBJECT_ID": "2016-058C",
    "EPOCH": "2026-06-26T02:28:03.406944",
    "MEAN_MOTION": 15.34589464,
    "ECCENTRICITY": 0.0001154,
    "INCLINATION": 97.047,
    "RA_OF_ASC_NODE": 217.3453,
    "ARG_OF_PERICENTER": 225.8248,
    "MEAN_ANOMALY": 134.2902,
    "EPHEMERIS_TYPE": 0,
    "CLASSIFICATION_TYPE": "U",
    "NORAD_CAT_ID": 41772,
    "ELEMENT_SET_NO": 999,
    "REV_AT_EPOCH": 54511,
    "BSTAR": 0.00025877,
    "MEAN_MOTION_DOT": 0.00008599,
    "MEAN_MOTION_DDOT": 0
   }
  },
  {
   "norad": 42992,
   "name": "SKYSAT-C6",
   "intl": "2017-068F",
   "group": "resource",
   "gcat": {
    "class": "B",
    "category": "IMG",
    "owner": "PLABST",
    "state": "US"
   },
   "omm": {
    "OBJECT_NAME": "SKYSAT-C6",
    "OBJECT_ID": "2017-068F",
    "EPOCH": "2026-06-25T22:50:47.267808",
    "MEAN_MOTION": 15.34104853,
    "ECCENTRICITY": 0.000516,
    "INCLINATION": 97.4571,
    "RA_OF_ASC_NODE": 314.6448,
    "ARG_OF_PERICENTER": 126.8739,
    "MEAN_ANOMALY": 233.2977,
    "EPHEMERIS_TYPE": 0,
    "CLASSIFICATION_TYPE": "U",
    "NORAD_CAT_ID": 42992,
    "ELEMENT_SET_NO": 999,
    "REV_AT_EPOCH": 48366,
    "BSTAR": 0.00031392,
    "MEAN_MOTION_DOT": 0.00010287,
    "MEAN_MOTION_DDOT": 0
   }
  },
  {
   "norad": 42991,
   "name": "SKYSAT-C7",
   "intl": "2017-068E",
   "group": "resource",
   "gcat": {
    "class": "B",
    "category": "IMG",
    "owner": "PLABST",
    "state": "US"
   },
   "omm": {
    "OBJECT_NAME": "SKYSAT-C7",
    "OBJECT_ID": "2017-068E",
    "EPOCH": "2026-06-25T21:59:01.461696",
    "MEAN_MOTION": 15.37088429,
    "ECCENTRICITY": 0.0007086,
    "INCLINATION": 97.4535,
    "RA_OF_ASC_NODE": 314.6722,
    "ARG_OF_PERICENTER": 81.301,
    "MEAN_ANOMALY": 278.9036,
    "EPHEMERIS_TYPE": 0,
    "CLASSIFICATION_TYPE": "U",
    "NORAD_CAT_ID": 42991,
    "ELEMENT_SET_NO": 999,
    "REV_AT_EPOCH": 48371,
    "BSTAR": 0.00033502,
    "MEAN_MOTION_DOT": 0.00012092,
    "MEAN_MOTION_DDOT": 0
   }
  },
  {
   "norad": 42990,
   "name": "SKYSAT-C8",
   "intl": "2017-068D",
   "group": "resource",
   "gcat": {
    "class": "B",
    "category": "IMG",
    "owner": "PLABST",
    "state": "US"
   },
   "omm": {
    "OBJECT_NAME": "SKYSAT-C8",
    "OBJECT_ID": "2017-068D",
    "EPOCH": "2026-06-25T22:07:49.071072",
    "MEAN_MOTION": 15.37136157,
    "ECCENTRICITY": 0.0001357,
    "INCLINATION": 97.4526,
    "RA_OF_ASC_NODE": 313.6885,
    "ARG_OF_PERICENTER": 95.4716,
    "MEAN_ANOMALY": 264.6683,
    "EPHEMERIS_TYPE": 0,
    "CLASSIFICATION_TYPE": "U",
    "NORAD_CAT_ID": 42990,
    "ELEMENT_SET_NO": 999,
    "REV_AT_EPOCH": 48365,
    "BSTAR": 0.00033861,
    "MEAN_MOTION_DOT": 0.00012232,
    "MEAN_MOTION_DDOT": 0
   }
  },
  {
   "norad": 42989,
   "name": "SKYSAT-C9",
   "intl": "2017-068C",
   "group": "resource",
   "gcat": {
    "class": "B",
    "category": "IMG",
    "owner": "PLABST",
    "state": "US"
   },
   "omm": {
    "OBJECT_NAME": "SKYSAT-C9",
    "OBJECT_ID": "2017-068C",
    "EPOCH": "2026-06-25T22:28:39.616896",
    "MEAN_MOTION": 15.41765303,
    "ECCENTRICITY": 0.0009577,
    "INCLINATION": 97.4429,
    "RA_OF_ASC_NODE": 314.8886,
    "ARG_OF_PERICENTER": 105.8215,
    "MEAN_ANOMALY": 254.4089,
    "EPHEMERIS_TYPE": 0,
    "CLASSIFICATION_TYPE": "U",
    "NORAD_CAT_ID": 42989,
    "ELEMENT_SET_NO": 999,
    "REV_AT_EPOCH": 48410,
    "BSTAR": 0.00034895,
    "MEAN_MOTION_DOT": 0.00014703,
    "MEAN_MOTION_DDOT": 0
   }
  }
 ]
}
