SKYSAT-C4               
1 41771U 16058B   26176.99023609  .00019440  00000+0  36233-3 0  9997
2 41771  96.9173 198.3940 0002026 140.4009 219.7391 15.48851382546832
SKYSAT-C5               
1 41772U 16058C   26177.10281721  .00008599  00000+0  25877-3 0  9998
2 41772  97.0470 217.3453 0001154 225.8248 134.2902 15.34589464545113
SKYSAT-C2               
1 41773U 16058D   26177.01908788  .00013945  00000+0  32596-3 0  9995
2 41773  97.0169 198.7820 0003924  51.2857 308.8741 15.42261578546419
SKYSAT-C3               
1 41774U 16058E   26176.58591493  .00026959  00000+0  43484-3 0  9995
2 41774  96.9009 207.1097 0001259 117.9292 242.2090 15.52881901547412
SKYSAT-C11              
1 42987U 17068A   26176.92012277  .00029690  00000+0  39214-3 0  9991
2 42987  97.4352 326.1337 0000485 126.6311 233.4989 15.58327902484606
SKYSAT-C10              
1 42988U 17068B   26176.89893700  .00010105  00000+0  30207-3 0  9990
2 42988  97.4509 313.8319 0001136 104.8493 255.2876 15.34774915483696
SKYSAT-C9               
1 42989U 17068C   26176.93656964  .00014703  00000+0  34895-3 0  9990
2 42989  97.4429 314.8886 0009577 105.8215 254.4089 15.41765303484101
SKYSAT-C8               
1 42990U 17068D   26176.92209573  .00012232  00000+0  33861-3 0  9998
2 42990  97.4526 313.6885 0001357  95.4716 264.6683 15.37136157483651
SKYSAT-C7               
1 42991U 17068E   26176.91598914  .00012092  00000+0  33502-3 0  9994
2 42991  97.4535 314.6722 0007086  81.3010 278.9036 15.37088429483714
SKYSAT-C6               
1 42992U 17068F   26176.95193597  .00010287  00000+0  31392-3 0  9996
2 42992  97.4571 314.6448 0005160 126.8739 233.2977 15.34104853483663
